{
  "type": "FeatureCollection",
  "features": [
    {
      "type": "Feature",
      "geometry": {
        "type": "Polygon",
        "coordinates": [
          [
            [
              121.9247752,
              40.3046923
            ],
            [
              121.9247752,
              40.3046914
            ],
            [
              121.9248304,
              40.3010831
            ],
            [
              121.9242159,
              40.3010444
            ],
            [
              121.9236423,
              40.3010088
            ],
            [
              121.9166263,
              40.3005696
            ],
            [
              121.9160706,
              40.3005339
            ],
            [
              121.9158877,
              40.3004927
            ],
            [
              121.9154755,
              40.3003966
            ],
            [
              121.9154468,
              40.3003912
            ],
            [
              121.915056,
              40.3003006
            ],
            [
              121.9147728,
              40.3002347
            ],
            [
              121.9145541,
              40.3001853
            ],
            [
              121.9040498,
              40.2977697
            ],
            [
              121.903659,
              40.2976791
            ],
            [
              121.8988299,
              40.2965701
            ],
            [
              121.8987367,
              40.2965481
            ],
            [
              121.8982205,
              40.2964301
            ],
            [
              121.8976038,
              40.2962901
            ],
            [
              121.878524,
              40.2919005
            ],
            [
              121.8782372,
              40.2918347
            ],
            [
              121.8782085,
              40.2918292
            ],
            [
              121.8773266,
              40.291626
            ],
            [
              121.8763228,
              40.2913954
            ],
            [
              121.8759069,
              40.2912993
            ],
            [
              121.8661878,
              40.2890646
            ],
            [
              121.8661053,
              40.2890454
            ],
            [
              121.8660694,
              40.2890372
            ],
            [
              121.8660049,
              40.2890234
            ],
            [
              121.86584,
              40.288985
            ],
            [
              121.8652449,
              40.2888477
            ],
            [
              121.8648828,
              40.2886555
            ],
            [
              121.8648756,
              40.2886528
            ],
            [
              121.8592363,
              40.2856767
            ],
            [
              121.8590821,
              40.2855971
            ],
            [
              121.8473589,
              40.2794111
            ],
            [
              121.8473338,
              40.2793974
            ],
            [
              121.842727,
              40.2769673
            ],
            [
              121.8390989,
              40.2849821
            ],
            [
              121.839253,
              40.2850178
            ],
            [
              121.8560778,
              40.2888917
            ],
            [
              121.8565618,
              40.2890042
            ],
            [
              121.8567088,
              40.2890372
            ],
            [
              121.8611543,
              40.2900612
            ],
            [
              121.8619681,
              40.2902479
            ],
            [
              121.871128,
              40.2923535
            ],
            [
              121.8763299,
              40.2935504
            ],
            [
              121.8769609,
              40.2936959
            ],
            [
              121.8780364,
              40.293943
            ],
            [
              121.8786853,
              40.294094
            ],
            [
              121.8789793,
              40.2941599
            ],
            [
              121.8847262,
              40.295483
            ],
            [
              121.8874652,
              40.2961117
            ],
            [
              121.8880603,
              40.2962489
            ],
            [
              121.8932157,
              40.2974348
            ],
            [
              121.8936853,
              40.2975419
            ],
            [
              121.8966072,
              40.2982144
            ],
            [
              121.8972381,
              40.2983599
            ],
            [
              121.899088,
              40.2987854
            ],
            [
              121.8991526,
              40.2987991
            ],
            [
              121.9061829,
              40.3004159
            ],
            [
              121.907176,
              40.3006437
            ],
            [
              121.9110909,
              40.301544
            ],
            [
              121.9117685,
              40.3017005
            ],
            [
              121.9243987,
              40.3046045
            ],
            [
              121.9247752,
              40.3046923
            ]
          ]
        ]
      },
      "properties": {
        "id": "352",
        "name": "航道 352",
        "lnam": "CN000186702322501",
        "rcid": 352.0,
        "fidn": 1867023.0,
        "drval1": 0.0,
        "orient": 73.28,
        "trafic": 4,
        "acronym": "FAIRWY"
      }
    },
    {
      "type": "Feature",
      "geometry": {
        "type": "Polygon",
        "coordinates": [
          [
            [
              121.7396443,
              40.2152445
            ],
            [
              121.7428486,
              40.2084302
            ],
            [
              121.7421036,
              40.2082243
            ],
            [
              121.7416261,
              40.2080961
            ],
            [
              121.7353046,
              40.2063478
            ],
            [
              121.7349226,
              40.2062425
            ],
            [
              121.734248,
              40.2060549
            ],
            [
              121.7342122,
              40.2060457
            ],
            [
              121.7338481,
              40.205945
            ],
            [
              121.7328333,
              40.2056659
            ],
            [
              121.7321409,
              40.2054736
            ],
            [
              121.7302904,
              40.2049656
            ],
            [
              121.7300516,
              40.2048969
            ],
            [
              121.7300158,
              40.2048878
            ],
            [
              121.7290906,
              40.2046315
            ],
            [
              121.7285653,
              40.2043065
            ],
            [
              121.7283504,
              40.2041738
            ],
            [
              121.7189428,
              40.1983654
            ],
            [
              121.7186563,
              40.1981869
            ],
            [
              121.7180116,
              40.1977886
            ],
            [
              121.71754,
              40.1975003
            ],
            [
              121.7174744,
              40.1974591
            ],
            [
              121.7172237,
              40.1973034
            ],
            [
              121.7168834,
              40.1970929
            ],
            [
              121.7167163,
              40.1969876
            ],
            [
              121.7161253,
              40.1966214
            ],
            [
              121.715027,
              40.1959439
            ],
            [
              121.7053747,
              40.1899838
            ],
            [
              121.7050702,
              40.1897961
            ],
            [
              121.7040734,
              40.189178
            ],
            [
              121.7036794,
              40.1889354
            ],
            [
              121.7032078,
              40.1886424
            ],
            [
              121.7029213,
              40.1884684
            ],
            [
              121.7014887,
              40.1875849
            ],
            [
              121.6919378,
              40.1816835
            ],
            [
              121.6916036,
              40.1814775
            ],
            [
              121.691323,
              40.1813035
            ],
            [
              121.6909589,
              40.1810791
            ],
            [
              121.6905649,
              40.180841
            ],
            [
              121.6904873,
              40.1807907
            ],
            [
              121.6904216,
              40.1807495
            ],
            [
              121.6902187,
              40.1806213
            ],
            [
              121.6896397,
              40.1802641
            ],
            [
              121.6896337,
              40.1802596
            ],
            [
              121.6892576,
              40.1800306
            ],
            [
              121.6879563,
              40.1792248
            ],
            [
              121.6782622,
              40.1732357
            ],
            [
              121.6779876,
              40.1730662
            ],
            [
              121.6769908,
              40.1724526
            ],
            [
              121.6767102,
              40.1722786
            ],
            [
              121.6759521,
              40.1718116
            ],
            [
              121.6758745,
              40.1717612
            ],
            [
              121.674418,
              40.1708637
            ],
            [
              121.6648731,
              40.1649654
            ],
            [
              121.6646941,
              40.1648555
            ],
            [
              121.6644613,
              40.1647089
            ],
            [
              121.6640494,
              40.164457
            ],
            [
              121.6639539,
              40.1643975
            ],
            [
              121.663351,
              40.1640266
            ],
            [
              121.663148,
              40.1639029
            ],
            [
              121.6629689,
              40.1637884
            ],
            [
              121.6626168,
              40.1635732
            ],
            [
              121.6625093,
              40.1635045
            ],
            [
              121.6622228,
              40.1633304
            ],
            [
              121.6608857,
              40.1625015
            ],
            [
              121.652857,
              40.1575414
            ],
            [
              121.6526302,
              40.1573994
            ],
            [
              121.6516333,
              40.1567857
            ],
            [
              121.6511617,
              40.1564926
            ],
            [
              121.6507439,
              40.1562361
            ],
            [
              121.6504514,
              40.1560529
            ],
            [
              121.6495381,
              40.1554895
            ],
            [
              121.6469235,
              40.1579765
            ],
            [
              121.6470668,
              40.1580635
            ],
            [
              121.6476578,
              40.15843
            ],
            [
              121.6580562,
              40.1648555
            ],
            [
              121.6588382,
              40.1653363
            ],
            [
              121.6593635,
              40.1656615
            ],
            [
              121.6594829,
              40.1657348
            ],
            [
              121.6700664,
              40.1722741
            ],
            [
              121.6705141,
              40.1725488
            ],
            [
              121.6711588,
              40.1729518
            ],
            [
              121.6712065,
              40.1729792
            ],
            [
              121.6712245,
              40.172993
            ],
            [
              121.6715826,
              40.1732128
            ],
            [
              121.6721616,
              40.1735699
            ],
            [
              121.6723706,
              40.1736981
            ],
            [
              121.6728899,
              40.1740187
            ],
            [
              121.6730152,
              40.1740965
            ],
            [
              121.6843807,
              40.1811157
            ],
            [
              121.685115,
              40.181569
            ],
            [
              121.6852164,
              40.1816331
            ],
            [
              121.6857059,
              40.1819353
            ],
            [
              121.6860462,
              40.1821459
            ],
            [
              121.6864163,
              40.1823748
            ],
            [
              121.6865476,
              40.1824572
            ],
            [
              121.6985936,
              40.1899014
            ],
            [
              121.6992263,
              40.1902905
            ],
            [
              121.6994352,
              40.1904187
            ],
            [
              121.6999486,
              40.1907345
            ],
            [
              121.7000799,
              40.1908169
            ],
            [
              121.7121498,
              40.1982693
            ],
            [
              121.7127646,
              40.1986492
            ],
            [
              121.7129735,
              40.1987774
            ],
            [
              121.713475,
              40.1990886
            ],
            [
              121.7136182,
              40.1991756
            ],
            [
              121.7257,
              40.2066361
            ],
            [
              121.7263089,
              40.2070114
            ],
            [
              121.7265178,
              40.2071396
            ],
            [
              121.7270312,
              40.2074554
            ],
            [
              121.7271625,
              40.2075378
            ],
            [
              121.7390055,
              40.214851
            ],
            [
              121.7395846,
              40.2152079
            ],
            [
              121.7396443,
              40.2152445
            ]
          ]
        ]
      },
      "properties": {
        "id": "353",
        "name": "航道 353",
        "lnam": "CN000189775222501",
        "rcid": 353.0,
        "fidn": 1897752.0,
        "drval1": 0.0,
        "orient": 51.15,
        "trafic": 4,
        "acronym": "FAIRWY"
      }
    },
    {
      "type": "Feature",
      "geometry": {
        "type": "Polygon",
        "coordinates": [
          [
            [
              122.0801223,
              40.2912114
            ],
            [
              122.0795518,
              40.2911744
            ],
            [
              122.0781979,
              40.2910867
            ],
            [
              122.0760318,
              40.2909463
            ],
            [
              122.0694049,
              40.2925253
            ],
            [
              122.0767396,
              40.2950493
            ],
            [
              122.0801223,
              40.2912114
            ]
          ]
        ]
      },
      "properties": {
        "id": "1111",
        "name": "航道 1111",
        "lnam": "CN000185488822501",
        "rcid": 1111.0,
        "fidn": 1854888.0,
        "drval1": 0.0,
        "orient": 72.4,
        "trafic": 4,
        "acronym": "FAIRWY"
      }
    },
    {
      "type": "Feature",
      "geometry": {
        "type": "Polygon",
        "coordinates": [
          [
            [
              122.0913237,
              40.2842133
            ],
            [
              122.0896674,
              40.2867118
            ],
            [
              122.0899331,
              40.286815
            ],
            [
              122.0910943,
              40.2872664
            ],
            [
              122.0957764,
              40.2890838
            ],
            [
              122.0974327,
              40.2865827
            ],
            [
              122.092673,
              40.2847366
            ],
            [
              122.0918973,
              40.2844357
            ],
            [
              122.0913954,
              40.2842408
            ],
            [
              122.0913237,
              40.2842133
            ]
          ]
        ]
      },
      "properties": {
        "id": "1452",
        "name": "航道 1452",
        "lnam": "CN000631465622501",
        "rcid": 1452.0,
        "fidn": 6314656.0,
        "drval1": 0.0,
        "orient": 0.0,
        "trafic": 0,
        "acronym": "FAIRWY"
      }
    },
    {
      "type": "Feature",
      "geometry": {
        "type": "Polygon",
        "coordinates": [
          [
            [
              121.9527354,
              40.2089291
            ],
            [
              121.9526526,
              40.2090742
            ],
            [
              121.9525682,
              40.209222
            ],
            [
              121.9525324,
              40.2092311
            ],
            [
              121.9524309,
              40.2091991
            ],
            [
              121.9524071,
              40.2092403
            ],
            [
              121.9525205,
              40.2092769
            ],
            [
              121.9523175,
              40.2096247
            ],
            [
              121.9522041,
              40.2095881
            ],
            [
              121.9521862,
              40.2096247
            ],
            [
              121.9522817,
              40.2096613
            ],
            [
              121.9522996,
              40.2096888
            ],
            [
              121.9522459,
              40.2097803
            ],
            [
              121.9522101,
              40.2097895
            ],
            [
              121.9521026,
              40.2097574
            ],
            [
              121.9520608,
              40.2098215
            ],
            [
              121.9521683,
              40.2098581
            ],
            [
              121.9521862,
              40.2098902
            ],
            [
              121.9521325,
              40.2099771
            ],
            [
              121.9520567,
              40.210151
            ],
            [
              121.9505446,
              40.2127962
            ],
            [
              121.9501686,
              40.2134598
            ],
            [
              121.9550873,
              40.2171436
            ],
            [
              121.9557678,
              40.2168187
            ],
            [
              121.9633666,
              40.2132035
            ],
            [
              121.9634315,
              40.2089546
            ],
            [
              121.9634502,
              40.2077483
            ],
            [
              121.9609849,
              40.2069153
            ],
            [
              121.9605909,
              40.2067826
            ],
            [
              121.9600835,
              40.2066133
            ],
            [
              121.9591046,
              40.2062837
            ],
            [
              121.9585435,
              40.2060961
            ],
            [
              121.9579465,
              40.2058947
            ],
            [
              121.9571825,
              40.2056384
            ],
            [
              121.956502,
              40.2059725
            ],
            [
              121.9547351,
              40.2068421
            ],
            [
              121.9542683,
              40.20707
            ],
            [
              121.9538457,
              40.2072769
            ],
            [
              121.9536427,
              40.2073776
            ],
            [
              121.9532726,
              40.2080183
            ],
            [
              121.9527354,
              40.2089291
            ]
          ]
        ]
      },
      "properties": {
        "id": "1465",
        "name": "航道 1465",
        "lnam": "CN000189767222501",
        "rcid": 1465.0,
        "fidn": 1897672.0,
        "drval1": 0.0,
        "orient": 0.0,
        "trafic": 0,
        "acronym": "FAIRWY"
      }
    },
    {
      "type": "Feature",
      "geometry": {
        "type": "Polygon",
        "coordinates": [
          [
            [
              122.0863361,
              40.2977156
            ],
            [
              122.0879504,
              40.2952365
            ],
            [
              122.0880221,
              40.2951264
            ],
            [
              122.0881975,
              40.2948571
            ],
            [
              122.0882083,
              40.2948407
            ],
            [
              122.0882646,
              40.2948626
            ],
            [
              122.0885883,
              40.2949889
            ],
            [
              122.0888751,
              40.2945497
            ],
            [
              122.0884951,
              40.2944014
            ],
            [
              122.0884628,
              40.2944481
            ],
            [
              122.087561,
              40.2941036
            ],
            [
              122.0818773,
              40.2919321
            ],
            [
              122.0804398,
              40.2913829
            ],
            [
              122.0805057,
              40.291282
            ],
            [
              122.0801916,
              40.2911549
            ],
            [
              122.0801837,
              40.2911669
            ],
            [
              122.0801477,
              40.291221
            ],
            [
              122.0801223,
              40.2912114
            ],
            [
              122.0767396,
              40.2950493
            ],
            [
              122.0768507,
              40.2951838
            ],
            [
              122.0768866,
              40.2952277
            ],
            [
              122.0769009,
              40.2955901
            ],
            [
              122.0769081,
              40.2959058
            ],
            [
              122.076926,
              40.2964713
            ],
            [
              122.076944,
              40.2970477
            ],
            [
              122.0769762,
              40.2981787
            ],
            [
              122.0763668,
              40.2989253
            ],
            [
              122.0763402,
              40.2989577
            ],
            [
              122.0773132,
              40.2993179
            ],
            [
              122.0776359,
              40.2992767
            ],
            [
              122.0777818,
              40.2993286
            ],
            [
              122.0777972,
              40.2993069
            ],
            [
              122.0778924,
              40.2993456
            ],
            [
              122.0784533,
              40.2995732
            ],
            [
              122.0784425,
              40.2995869
            ],
            [
              122.0784364,
              40.2995957
            ],
            [
              122.0784379,
              40.2995962
            ],
            [
              122.0785752,
              40.2996528
            ],
            [
              122.0785572,
              40.2996884
            ],
            [
              122.0788082,
              40.2999108
            ],
            [
              122.0799554,
              40.3003472
            ],
            [
              122.0799698,
              40.3003198
            ],
            [
              122.080263,
              40.3004348
            ],
            [
              122.0802634,
              40.3004351
            ],
            [
              122.0802709,
              40.3004241
            ],
            [
              122.0803677,
              40.3002868
            ],
            [
              122.0806619,
              40.3004019
            ],
            [
              122.0810306,
              40.300546
            ],
            [
              122.0812389,
              40.3006272
            ],
            [
              122.0811313,
              40.3007864
            ],
            [
              122.0811231,
              40.3007999
            ],
            [
              122.0811242,
              40.3008001
            ],
            [
              122.0813823,
              40.300899
            ],
            [
              122.0818483,
              40.3010746
            ],
            [
              122.0820599,
              40.3011542
            ],
            [
              122.0820778,
              40.301124
            ],
            [
              122.0823216,
              40.3012146
            ],
            [
              122.0823219,
              40.3012149
            ],
            [
              122.0823287,
              40.3012036
            ],
            [
              122.082422,
              40.3010691
            ],
            [
              122.0828652,
              40.3012446
            ],
            [
              122.0830343,
              40.3013115
            ],
            [
              122.0832824,
              40.3014095
            ],
            [
              122.0831963,
              40.3015303
            ],
            [
              122.0831899,
              40.3015402
            ],
            [
              122.0831928,
              40.3015413
            ],
            [
              122.0833541,
              40.3016071
            ],
            [
              122.083795,
              40.3017883
            ],
            [
              122.0842324,
              40.3019667
            ],
            [
              122.0842554,
              40.3019763
            ],
            [
              122.0842977,
              40.3019936
            ],
            [
              122.0845866,
              40.3015479
            ],
            [
              122.0845121,
              40.3015166
            ],
            [
              122.0858457,
              40.2994743
            ],
            [
              122.0857346,
              40.2992438
            ],
            [
              122.0856521,
              40.2990763
            ],
            [
              122.0854908,
              40.2990159
            ],
            [
              122.08574,
              40.2986301
            ],
            [
              122.085939,
              40.2983247
            ],
            [
              122.0863361,
              40.2977156
            ]
          ]
        ]
      },
      "properties": {
        "id": "1535",
        "name": "航道 1535",
        "lnam": "CN000186844022501",
        "rcid": 1535.0,
        "fidn": 1868440.0,
        "drval1": 0.0,
        "orient": 0.0,
        "trafic": 0,
        "acronym": "FAIRWY"
      }
    },
    {
      "type": "Feature",
      "geometry": {
        "type": "Polygon",
        "coordinates": [
          [
            [
              122.0244368,
              40.2948517
            ],
            [
              122.0245014,
              40.2948654
            ],
            [
              122.0271683,
              40.2952615
            ],
            [
              122.0333243,
              40.2961756
            ],
            [
              122.0372929,
              40.296765
            ],
            [
              122.0380064,
              40.2968721
            ],
            [
              122.038329,
              40.2969187
            ],
            [
              122.0400484,
              40.2971737
            ],
            [
              122.0424734,
              40.2975336
            ],
            [
              122.0431223,
              40.2976297
            ],
            [
              122.0433661,
              40.2977066
            ],
            [
              122.0468615,
              40.2988183
            ],
            [
              122.0474567,
              40.2990022
            ],
            [
              122.0527984,
              40.3007068
            ],
            [
              122.0561543,
              40.3017767
            ],
            [
              122.0641968,
              40.3074405
            ],
            [
              122.0667702,
              40.3006384
            ],
            [
              122.0661895,
              40.300601
            ],
            [
              122.0637375,
              40.3004428
            ],
            [
              122.0566319,
              40.2999847
            ],
            [
              122.0542253,
              40.2992081
            ],
            [
              122.0500702,
              40.297885
            ],
            [
              122.0487014,
              40.2974499
            ],
            [
              122.0474531,
              40.2970532
            ],
            [
              122.0387413,
              40.2942697
            ],
            [
              122.0378881,
              40.2939979
            ],
            [
              122.0376016,
              40.2939059
            ],
            [
              122.0368213,
              40.2936559
            ],
            [
              122.036809,
              40.293652
            ],
            [
              122.0367552,
              40.2936355
            ],
            [
              122.036668,
              40.2936441
            ],
            [
              122.0244368,
              40.2948517
            ]
          ]
        ]
      },
      "properties": {
        "id": "1536",
        "name": "航道 1536",
        "lnam": "CN000186702522501",
        "rcid": 1536.0,
        "fidn": 1867025.0,
        "drval1": 0.0,
        "orient": 67.42,
        "trafic": 4,
        "acronym": "FAIRWY"
      }
    },
    {
      "type": "Feature",
      "geometry": {
        "type": "Polygon",
        "coordinates": [
          [
            [
              121.7428486,
              40.2084302
            ],
            [
              121.7396443,
              40.2152445
            ],
            [
              121.74048,
              40.2152537
            ],
            [
              121.7556479,
              40.2154138
            ],
            [
              121.7561195,
              40.2154184
            ],
            [
              121.75717,
              40.2154321
            ],
            [
              121.7575103,
              40.2154367
            ],
            [
              121.7688937,
              40.2155557
            ],
            [
              121.7707561,
              40.215574
            ],
            [
              121.7866165,
              40.2157433
            ],
            [
              121.7876671,
              40.2157525
            ],
            [
              121.8036468,
              40.2159218
            ],
            [
              121.8040169,
              40.2159264
            ],
            [
              121.8050675,
              40.2159355
            ],
            [
              121.8055092,
              40.2159401
            ],
            [
              121.8115083,
              40.2160042
            ],
            [
              121.8115143,
              40.2157571
            ],
            [
              121.8168924,
              40.2158094
            ],
            [
              121.8203394,
              40.2158429
            ],
            [
              121.8300749,
              40.2159372
            ],
            [
              121.8343372,
              40.2159783
            ],
            [
              121.8435038,
              40.2160666
            ],
            [
              121.8732585,
              40.2163533
            ],
            [
              121.8810608,
              40.2164291
            ],
            [
              121.8869763,
              40.2164865
            ],
            [
              121.941497,
              40.2170135
            ],
            [
              121.9431129,
              40.2170292
            ],
            [
              121.9441635,
              40.2170384
            ],
            [
              121.9496976,
              40.217091
            ],
            [
              121.9547172,
              40.217139
            ],
            [
              121.9550873,
              40.2171436
            ],
            [
              121.9501686,
              40.2134598
            ],
            [
              121.9500611,
              40.2134827
            ],
            [
              121.9492738,
              40.2136474
            ],
            [
              121.9492075,
              40.2136611
            ],
            [
              121.9485091,
              40.2138076
            ],
            [
              121.9470228,
              40.2141188
            ],
            [
              121.944456,
              40.2142881
            ],
            [
              121.9436919,
              40.2143384
            ],
            [
              121.9430532,
              40.2143293
            ],
            [
              121.9418773,
              40.2143201
            ],
            [
              121.9417638,
              40.2143201
            ],
            [
              121.9413385,
              40.2143143
            ],
            [
              121.9410953,
              40.214311
            ],
            [
              121.9406177,
              40.2143064
            ],
            [
              121.9294671,
              40.214192
            ],
            [
              121.9291806,
              40.2141874
            ],
            [
              121.9285718,
              40.2141874
            ],
            [
              121.9282196,
              40.2141828
            ],
            [
              121.927551,
              40.2141783
            ],
            [
              121.9270973,
              40.2141737
            ],
            [
              121.9256289,
              40.21416
            ],
            [
              121.9120787,
              40.2140227
            ],
            [
              121.9117503,
              40.2140181
            ],
            [
              121.9112549,
              40.2140181
            ],
            [
              121.9108729,
              40.2140135
            ],
            [
              121.9102043,
              40.2140089
            ],
            [
              121.9098461,
              40.2140044
            ],
            [
              121.9095357,
              40.2140044
            ],
            [
              121.9082404,
              40.2139906
            ],
            [
              121.8948036,
              40.2138533
            ],
            [
              121.8932695,
              40.2138442
            ],
            [
              121.8928158,
              40.2138396
            ],
            [
              121.8926009,
              40.2138396
            ],
            [
              121.892189,
              40.213835
            ],
            [
              121.8908519,
              40.2138213
            ],
            [
              121.8749319,
              40.2136657
            ],
            [
              121.8736485,
              40.213652
            ],
            [
              121.8714577,
              40.2136337
            ],
            [
              121.8711354,
              40.2136291
            ],
            [
              121.8598415,
              40.2135193
            ],
            [
              121.8594118,
              40.2135147
            ],
            [
              121.8582,
              40.2135055
            ],
            [
              121.858009,
              40.2135055
            ],
            [
              121.8575673,
              40.213501
            ],
            [
              121.8560988,
              40.2134872
            ],
            [
              121.8490013,
              40.2134186
            ],
            [
              121.8484402,
              40.213414
            ],
            [
              121.8471628,
              40.2134003
            ],
            [
              121.8424948,
              40.2133499
            ],
            [
              121.8421188,
              40.2133454
            ],
            [
              121.8414502,
              40.2133408
            ],
            [
              121.841301,
              40.2133408
            ],
            [
              121.8406623,
              40.2133362
            ],
            [
              121.8401847,
              40.2133316
            ],
            [
              121.8401788,
              40.2133316
            ],
            [
              121.8333081,
              40.2132676
            ],
            [
              121.8315233,
              40.2132538
            ],
            [
              121.8256793,
              40.2131956
            ],
            [
              121.8115621,
              40.2130571
            ],
            [
              121.811568,
              40.2128054
            ],
            [
              121.8076343,
              40.2127642
            ],
            [
              121.8074552,
              40.2127642
            ],
            [
              121.806709,
              40.212755
            ],
            [
              121.8064404,
              40.2127504
            ],
            [
              121.8058017,
              40.2127459
            ],
            [
              121.8055749,
              40.2127413
            ],
            [
              121.8054018,
              40.2127413
            ],
            [
              121.8039632,
              40.212723
            ],
            [
              121.803611,
              40.2127184
            ],
            [
              121.7880431,
              40.2125537
            ],
            [
              121.7865747,
              40.2125399
            ],
            [
              121.7863896,
              40.2125354
            ],
            [
              121.7852018,
              40.2125216
            ],
            [
              121.7849152,
              40.2125216
            ],
            [
              121.7844377,
              40.2125171
            ],
            [
              121.772726,
              40.2123935
            ],
            [
              121.7724753,
              40.2123889
            ],
            [
              121.7687683,
              40.2123569
            ],
            [
              121.7687385,
              40.2123569
            ],
            [
              121.7596533,
              40.2122608
            ],
            [
              121.7575222,
              40.2122379
            ],
            [
              121.7574327,
              40.2122379
            ],
            [
              121.756597,
              40.2122287
            ],
            [
              121.7559643,
              40.2120548
            ],
            [
              121.7557195,
              40.2119862
            ],
            [
              121.7437093,
              40.2086682
            ],
            [
              121.7428486,
              40.2084302
            ]
          ]
        ]
      },
      "properties": {
        "id": "1547",
        "name": "航道 1547",
        "lnam": "CN000189775422501",
        "rcid": 1547.0,
        "fidn": 1897754.0,
        "drval1": 0.0,
        "orient": 89.25,
        "trafic": 4,
        "acronym": "FAIRWY"
      }
    },
    {
      "type": "Feature",
      "geometry": {
        "type": "Polygon",
        "coordinates": [
          [
            [
              121.9248304,
              40.3010831
            ],
            [
              121.9247752,
              40.3046914
            ],
            [
              121.9247752,
              40.3046923
            ],
            [
              121.9250297,
              40.3046676
            ],
            [
              121.9271055,
              40.3044618
            ],
            [
              121.9281702,
              40.3043575
            ],
            [
              121.938653,
              40.3033227
            ],
            [
              121.939284,
              40.3032595
            ],
            [
              121.939958,
              40.3031937
            ],
            [
              121.940865,
              40.3031031
            ],
            [
              121.9412199,
              40.3030674
            ],
            [
              121.9516848,
              40.3020353
            ],
            [
              121.9526133,
              40.3019448
            ],
            [
              121.9552125,
              40.3016895
            ],
            [
              121.9552663,
              40.301684
            ],
            [
              121.9557037,
              40.3016401
            ],
            [
              121.955994,
              40.3016099
            ],
            [
              121.9627448,
              40.3009429
            ],
            [
              121.962777,
              40.3009401
            ],
            [
              121.9681224,
              40.3004131
            ],
            [
              121.9691441,
              40.3003116
            ],
            [
              121.9736972,
              40.2998614
            ],
            [
              121.9749161,
              40.2997406
            ],
            [
              121.976386,
              40.2995951
            ],
            [
              121.977017,
              40.2995347
            ],
            [
              121.9796018,
              40.2992794
            ],
            [
              121.9808709,
              40.2991532
            ],
            [
              121.9924221,
              40.298014
            ],
            [
              121.9934832,
              40.2979097
            ],
            [
              121.997391,
              40.2975226
            ],
            [
              121.998022,
              40.2974595
            ],
            [
              122.0,
              40.2972641
            ],
            [
              122.0184211,
              40.2954446
            ],
            [
              122.0190521,
              40.2953842
            ],
            [
              122.0212067,
              40.2951701
            ],
            [
              122.0221173,
              40.2950822
            ],
            [
              122.0244368,
              40.2948517
            ],
            [
              122.036668,
              40.2936441
            ],
            [
              122.0367552,
              40.2936355
            ],
            [
              122.0417456,
              40.2931441
            ],
            [
              122.0421149,
              40.2931085
            ],
            [
              122.0436905,
              40.2929536
            ],
            [
              122.0444986,
              40.2928743
            ],
            [
              122.0461087,
              40.2927159
            ],
            [
              122.0474495,
              40.2925896
            ],
            [
              122.0474839,
              40.2925863
            ],
            [
              122.0492596,
              40.2924103
            ],
            [
              122.0499839,
              40.292338
            ],
            [
              122.0503785,
              40.2922986
            ],
            [
              122.0559676,
              40.2917441
            ],
            [
              122.056319,
              40.2917084
            ],
            [
              122.0567886,
              40.2916617
            ],
            [
              122.0612082,
              40.291964
            ],
            [
              122.0644072,
              40.2921826
            ],
            [
              122.0694045,
              40.2925237
            ],
            [
              122.0759932,
              40.2909386
            ],
            [
              122.0761122,
              40.2908985
            ],
            [
              122.0763703,
              40.2908079
            ],
            [
              122.0766704,
              40.2907041
            ],
            [
              122.0767038,
              40.2906926
            ],
            [
              122.0770169,
              40.2905834
            ],
            [
              122.0773096,
              40.2904812
            ],
            [
              122.0781083,
              40.290203
            ],
            [
              122.0811564,
              40.2891415
            ],
            [
              122.0812676,
              40.289103
            ],
            [
              122.0812998,
              40.2890921
            ],
            [
              122.0814755,
              40.2891223
            ],
            [
              122.0819989,
              40.2892156
            ],
            [
              122.082318,
              40.2892733
            ],
            [
              122.0823933,
              40.289287
            ],
            [
              122.0837628,
              40.2856795
            ],
            [
              122.0829328,
              40.2859035
            ],
            [
              122.0825955,
              40.2859944
            ],
            [
              122.0800701,
              40.2866761
            ],
            [
              122.0783816,
              40.2871318
            ],
            [
              122.0781736,
              40.2871867
            ],
            [
              122.077747,
              40.287302
            ],
            [
              122.0758648,
              40.28781
            ],
            [
              122.0757035,
              40.2878539
            ],
            [
              122.0712462,
              40.2883201
            ],
            [
              122.06856,
              40.2886009
            ],
            [
              122.0673539,
              40.2887269
            ],
            [
              122.0673288,
              40.2887297
            ],
            [
              122.0672714,
              40.2887269
            ],
            [
              122.0670384,
              40.2887159
            ],
            [
              122.0668304,
              40.2887077
            ],
            [
              122.0663536,
              40.2886857
            ],
            [
              122.0663465,
              40.2886857
            ],
            [
              122.0658911,
              40.2886665
            ],
            [
              122.0654645,
              40.2887077
            ],
            [
              122.0623885,
              40.2890125
            ],
            [
              122.0616213,
              40.2890893
            ],
            [
              122.0580219,
              40.2894462
            ],
            [
              122.0579717,
              40.2894517
            ],
            [
              122.0578355,
              40.2894654
            ],
            [
              122.0577351,
              40.2894764
            ],
            [
              122.0566811,
              40.2895807
            ],
            [
              122.0557991,
              40.2896686
            ],
            [
              122.0496149,
              40.2902808
            ],
            [
              122.048378,
              40.2904044
            ],
            [
              122.0474818,
              40.2904922
            ],
            [
              122.046987,
              40.2905361
            ],
            [
              122.0396268,
              40.2912636
            ],
            [
              122.0387449,
              40.2913515
            ],
            [
              122.0302232,
              40.2921943
            ],
            [
              122.0295348,
              40.2922629
            ],
            [
              122.0242088,
              40.2927897
            ],
            [
              122.0186541,
              40.2933391
            ],
            [
              122.0177722,
              40.2934242
            ],
            [
              122.0126885,
              40.2939265
            ],
            [
              122.0119966,
              40.2939952
            ],
            [
              122.0060275,
              40.2945854
            ],
            [
              122.0048946,
              40.2946979
            ],
            [
              122.0,
              40.2951822
            ],
            [
              121.9976527,
              40.2954144
            ],
            [
              121.9967708,
              40.2954995
            ],
            [
              121.9953618,
              40.2956395
            ],
            [
              121.9952614,
              40.2956505
            ],
            [
              121.995222,
              40.2956532
            ],
            [
              121.9838071,
              40.2967815
            ],
            [
              121.982685,
              40.2968913
            ],
            [
              121.97668,
              40.2974842
            ],
            [
              121.975798,
              40.2975721
            ],
            [
              121.9709904,
              40.2980469
            ],
            [
              121.9699078,
              40.298154
            ],
            [
              121.9689874,
              40.2982447
            ],
            [
              121.9652256,
              40.2986152
            ],
            [
              121.9642182,
              40.2987167
            ],
            [
              121.9556821,
              40.2995594
            ],
            [
              121.9548002,
              40.2996473
            ],
            [
              121.9520648,
              40.2999163
            ],
            [
              121.9512761,
              40.2999959
            ],
            [
              121.9490601,
              40.3002147
            ],
            [
              121.9398901,
              40.3011199
            ],
            [
              121.9384021,
              40.3012668
            ],
            [
              121.9377567,
              40.3013299
            ],
            [
              121.9342649,
              40.3016758
            ],
            [
              121.9337988,
              40.3016483
            ],
            [
              121.9337307,
              40.3016428
            ],
            [
              121.9330854,
              40.3016017
            ],
            [
              121.9328022,
              40.3015852
            ],
            [
              121.9248304,
              40.3010831
            ]
          ]
        ]
      },
      "properties": {
        "id": "1550",
        "name": "航道 1550",
        "lnam": "CN000186705822501",
        "rcid": 1550.0,
        "fidn": 1867058.0,
        "drval1": 0.0,
        "orient": 97.4,
        "trafic": 4,
        "acronym": "FAIRWY"
      }
    },
    {
      "type": "Feature",
      "geometry": {
        "type": "Polygon",
        "coordinates": [
          [
            [
              122.0884743,
              40.2936213
            ],
            [
              122.0888285,
              40.2937618
            ],
            [
              122.0889683,
              40.2935477
            ],
            [
              122.0890364,
              40.2935724
            ],
            [
              122.0890837,
              40.2935909
            ],
            [
              122.0896316,
              40.2938057
            ],
            [
              122.0896351,
              40.2938003
            ],
            [
              122.0896357,
              40.2937995
            ],
            [
              122.0898036,
              40.2935642
            ],
            [
              122.0911648,
              40.2940908
            ],
            [
              122.091166,
              40.2940912
            ],
            [
              122.0911659,
              40.2940913
            ],
            [
              122.0911301,
              40.2941407
            ],
            [
              122.0911172,
              40.2941577
            ],
            [
              122.0911251,
              40.2941604
            ],
            [
              122.0913165,
              40.2942285
            ],
            [
              122.0913212,
              40.2942301
            ],
            [
              122.091356,
              40.2941736
            ],
            [
              122.0915209,
              40.294234
            ],
            [
              122.0914599,
              40.2943328
            ],
            [
              122.0913746,
              40.2943015
            ],
            [
              122.0912871,
              40.2944456
            ],
            [
              122.0912825,
              40.2944533
            ],
            [
              122.0919941,
              40.2947171
            ],
            [
              122.0919984,
              40.2947188
            ],
            [
              122.0922122,
              40.294396
            ],
            [
              122.0927789,
              40.2935403
            ],
            [
              122.092951,
              40.2932806
            ],
            [
              122.092947,
              40.2932827
            ],
            [
              122.0929981,
              40.2932052
            ],
            [
              122.0931918,
              40.292916
            ],
            [
              122.0931924,
              40.2929188
            ],
            [
              122.0941045,
              40.291555
            ],
            [
              122.0944463,
              40.291044
            ],
            [
              122.0929486,
              40.290445
            ],
            [
              122.0925175,
              40.2902726
            ],
            [
              122.0914773,
              40.2898708
            ],
            [
              122.0883732,
              40.288672
            ],
            [
              122.083666,
              40.2910632
            ],
            [
              122.0846959,
              40.2914615
            ],
            [
              122.0859615,
              40.2919508
            ],
            [
              122.0859604,
              40.2919527
            ],
            [
              122.0856134,
              40.2924735
            ],
            [
              122.085613,
              40.292474
            ],
            [
              122.0867581,
              40.292933
            ],
            [
              122.0869811,
              40.2930225
            ],
            [
              122.0884743,
              40.2936213
            ]
          ]
        ]
      },
      "properties": {
        "id": "1556",
        "name": "航道 1556",
        "lnam": "CN000622535022501",
        "rcid": 1556.0,
        "fidn": 6225350.0,
        "drval1": 0.0,
        "orient": 0.0,
        "trafic": 0,
        "acronym": "FAIRWY"
      }
    },
    {
      "type": "Feature",
      "geometry": {
        "type": "Polygon",
        "coordinates": [
          [
            [
              122.0821602,
              40.3021177
            ],
            [
              122.0804932,
              40.3013629
            ],
            [
              122.0801162,
              40.3012279
            ],
            [
              122.0793352,
              40.3009484
            ],
            [
              122.0791918,
              40.3011625
            ],
            [
              122.0794033,
              40.3012448
            ],
            [
              122.0793585,
              40.3013156
            ],
            [
              122.0792743,
              40.3014479
            ],
            [
              122.0789413,
              40.3013227
            ],
            [
              122.0744631,
              40.299639
            ],
            [
              122.074547,
              40.2995051
            ],
            [
              122.0741297,
              40.2993343
            ],
            [
              122.0736385,
              40.299134
            ],
            [
              122.0736098,
              40.299123
            ],
            [
              122.0734628,
              40.2990626
            ],
            [
              122.0729679,
              40.2990567
            ],
            [
              122.0681327,
              40.3002906
            ],
            [
              122.0667702,
              40.3006384
            ],
            [
              122.0641968,
              40.3074405
            ],
            [
              122.0644838,
              40.3131047
            ],
            [
              122.0644996,
              40.3134162
            ],
            [
              122.0648046,
              40.3135338
            ],
            [
              122.0650763,
              40.3136379
            ],
            [
              122.0727097,
              40.3165617
            ],
            [
              122.0734926,
              40.3153724
            ],
            [
              122.0768429,
              40.3102836
            ],
            [
              122.0787544,
              40.3074151
            ],
            [
              122.081274,
              40.3034962
            ],
            [
              122.0818273,
              40.3026357
            ],
            [
              122.0818785,
              40.302556
            ],
            [
              122.0819272,
              40.30248
            ],
            [
              122.0820168,
              40.302373
            ],
            [
              122.0821602,
              40.3021177
            ]
          ]
        ]
      },
      "properties": {
        "id": "1558",
        "name": "航道 1558",
        "lnam": "CN000310736222501",
        "rcid": 1558.0,
        "fidn": 3107362.0,
        "drval1": 0.0,
        "orient": 0.0,
        "trafic": 0,
        "acronym": "FAIRWY"
      }
    },
    {
      "type": "Feature",
      "geometry": {
        "type": "Polygon",
        "coordinates": [
          [
            [
              122.0816871,
              40.2627422
            ],
            [
              122.0814667,
              40.2627325
            ],
            [
              122.0813717,
              40.262771
            ],
            [
              122.0807391,
              40.2627518
            ],
            [
              122.0805438,
              40.2626914
            ],
            [
              122.0797166,
              40.2627206
            ],
            [
              122.0789291,
              40.2627408
            ],
            [
              122.0789004,
              40.2628396
            ],
            [
              122.0788753,
              40.2628671
            ],
            [
              122.0788184,
              40.2628697
            ],
            [
              122.078801,
              40.2636677
            ],
            [
              122.0789444,
              40.2642581
            ],
            [
              122.0794643,
              40.2648926
            ],
            [
              122.0801625,
              40.2654359
            ],
            [
              122.082387,
              40.2671703
            ],
            [
              122.0842575,
              40.268627
            ],
            [
              122.0850253,
              40.2692235
            ],
            [
              122.0853115,
              40.2694459
            ],
            [
              122.0854334,
              40.2695118
            ],
            [
              122.0854328,
              40.2695445
            ],
            [
              122.0854004,
              40.2722475
            ],
            [
              122.0853151,
              40.279304
            ],
            [
              122.0868762,
              40.279528
            ],
            [
              122.0938234,
              40.2805249
            ],
            [
              122.0939853,
              40.2802842
            ],
            [
              122.0939871,
              40.2802842
            ],
            [
              122.093988,
              40.2802829
            ],
            [
              122.094462,
              40.2802867
            ],
            [
              122.0944592,
              40.2795116
            ],
            [
              122.0944767,
              40.2782053
            ],
            [
              122.094665,
              40.2640961
            ],
            [
              122.0948694,
              40.2515356
            ],
            [
              122.0949303,
              40.2480496
            ],
            [
              122.0949511,
              40.2473944
            ],
            [
              122.0949647,
              40.2469763
            ],
            [
              122.0822089,
              40.246874
            ],
            [
              122.0821762,
              40.2468443
            ],
            [
              122.0821721,
              40.2465691
            ],
            [
              122.0820702,
              40.2465703
            ],
            [
              122.0820708,
              40.2468481
            ],
            [
              122.0820463,
              40.246868
            ],
            [
              122.0820318,
              40.2468679
            ],
            [
              122.0819625,
              40.2468678
            ],
            [
              122.0818932,
              40.2521684
            ],
            [
              122.0817741,
              40.2610389
            ],
            [
              122.0817641,
              40.2617703
            ],
            [
              122.0817517,
              40.2625486
            ],
            [
              122.0817481,
              40.2628067
            ],
            [
              122.0816853,
              40.2628053
            ],
            [
              122.0816871,
              40.2627422
            ]
          ]
        ]
      },
      "properties": {
        "id": "1564",
        "name": "航道 1564",
        "lnam": "CN000622536422501",
        "rcid": 1564.0,
        "fidn": 6225364.0,
        "drval1": 0.0,
        "orient": 0.0,
        "trafic": 0,
        "acronym": "FAIRWY"
      }
    }
  ]
}