{
    "type": "FeatureCollection",
    "features": [
        {
            "type": "Feature",
            "properties": {
                "id": 10
            },
            "geometry": {
                "type": "Polygon",
                "coordinates": [
                    [
                        [
                            122.022607,
                            40.333155
                        ],
                        [
                            121.933364,
                            40.333234
                        ],
                        [
                            121.924154,
                            40.331181
                        ],
                        [
                            121.924147,
                            40.300432
                        ],
                        [
                            122.020259,
                            40.290511
                        ],
                        [
                            122.022607,
                            40.333155
                        ]
                    ]
                ]
            }
        },
        {
            "type": "Feature",
            "properties": {
                "id": 9
            },
            "geometry": {
                "type": "Polygon",
                "coordinates": [
                    [
                        [
                            121.924048,
                            40.331262
                        ],
                        [
                            121.812542,
                            40.307112
                        ],
                        [
                            121.812832,
                            40.275032
                        ],
                        [
                            121.924061,
                            40.300590
                        ],
                        [
                            121.924048,
                            40.331262
                        ]
                    ]
                ]
            }
        },
        {
            "type": "Feature",
            "properties": {
                "id": 8
            },
            "geometry": {
                "type": "Polygon",
                "coordinates": [
                    [
                        [
                            121.812080,
                            40.307011
                        ],
                        [
                            121.691786,
                            40.294445
                        ],
                        [
                            121.691666,
                            40.273618
                        ],
                        [
                            121.812853,
                            40.275119
                        ],
                        [
                            121.812080,
                            40.307011
                        ]
                    ]
                ]
            }
        },
        {
            "type": "Feature",
            "properties": {
                "id": 4
            },
            "geometry": {
                "type": "Polygon",
                "coordinates": [
                    [
                        [
                            121.691999,
                            40.294465
                        ],
                        [
                            121.563930,
                            40.206706
                        ],
                        [
                            121.564734,
                            40.182818
                        ],
                        [
                            121.610320,
                            40.212289
                        ],
                        [
                            121.691562,
                            40.273555
                        ]
                    ]
                ]
            }
        },
        {
            "type": "Feature",
            "properties": {
                "id": 5
            },
            "geometry": {
                "type": "Polygon",
                "coordinates": [
                    [
                        [
                            121.812712,
                            40.275088
                        ],
                        [
                            121.659044,
                            40.181763
                        ],
                        [
                            121.654078,
                            40.168462
                        ],
                        [
                            121.865551,
                            40.287138
                        ]
                    ]
                ]
            }
        },
        {
            "type": "Feature",
            "properties": {
                "id": 2
            },
            "geometry": {
                "type": "Polygon",
                "coordinates": [
                    [
                        [
                            121.610288,
                            40.212473
                        ],
                        [
                            121.564726,
                            40.182718
                        ],
                        [
                            121.646536,
                            40.184890
                        ],
                        [
                            121.610288,
                            40.212473
                        ]
                    ]
                ]
            }
        },
        {
            "type": "Feature",
            "properties": {
                "id": 1
            },
            "geometry": {
                "type": "Polygon",
                "coordinates": [
                    [
                        [
                            121.564710,
                            40.182785
                        ],
                        [
                            121.525851,
                            40.167762
                        ],
                        [
                            121.654058,
                            40.168477
                        ],
                        [
                            121.646527,
                            40.184877
                        ],
                        [
                            121.564710,
                            40.182785
                        ]
                    ]
                ]
            }
        },
        {
            "type": "Feature",
            "properties": {
                "id": 3
            },
            "geometry": {
                "type": "Polygon",
                "coordinates": [
                    [
                        [
                            121.692878,
                            40.221923
                        ],
                        [
                            121.691603,
                            40.273581
                        ],
                        [
                            121.610288,
                            40.212401
                        ],
                        [
                            121.710563,
                            40.212949
                        ],
                        [
                            121.725816,
                            40.222467
                        ],
                        [
                            121.692878,
                            40.221923
                        ]
                    ]
                ]
            }
        },
        {
            "type": "Feature",
            "properties": {
                "id": 6
            },
            "geometry": {
                "type": "Polygon",
                "coordinates": [
                    [
                        [
                            121.740970,
                            40.217184
                        ],
                        [
                            121.653945,
                            40.168502
                        ],
                        [
                            121.678883,
                            40.167762
                        ],
                        [
                            121.758678,
                            40.208996
                        ]
                    ]
                ]
            }
        },
        {
            "type": "Feature",
            "properties": {
                "id": 7
            },
            "geometry": {
                "type": "Polygon",
                "coordinates": [
                    [
                        [
                            121.945177,
                            40.219465
                        ],
                        [
                            121.740970,
                            40.217184
                        ],
                        [
                            121.758707,
                            40.209067
                        ],
                        [
                            121.947616,
                            40.211707
                        ]
                    ]
                ]
            }
        }
    ]
}